CTC1_L_00542024-03
1 17798U 22475BA  26037.47809028  .00000000  00000+0  00000-0 0  9997
2 17798  96.3000 276.0000 0000000   0.0000 228.0000 15.59189987    12
CTC1_L_00542024-04
1 17799U 22513QO  26037.47809028  .00000000  00000+0  00000-0 0  9991
2 17799  96.3000 276.0000 0000000   0.0000 273.0000 15.59189987    13
CTC1_L_00542024-05
1 17800U 26548SG  26037.47809028  .00000000  00000+0  00000-0 0  9996
2 17800  96.3000 276.0000 0000000   0.0000 318.0000 15.59189987    16
CTC1_L_00542024-06
1 17801U 26133NS  26037.47809028  .00000000  00000+0  00000-0 0  9997
2 17801  96.3000 276.0000 0000000   0.0000   3.0000 15.59189987    18
CTC1_L_00542024-07
1 17802U 26425YZ  26037.47809028  .00000000  00000+0  00000-0 0  9992
2 17802  96.3000 276.0000 0000000   0.0000  48.0000 15.59189987    18
CTC1_L_00542024-08
1 17803U 25791CJ  26037.47809028  .00000000  00000+0  00000-0 0  9998
2 17803  96.3000 276.0000 0000000   0.0000  93.0000 15.59189987    19
CTC1_L_00542025-01
1 17804U 22836EN  26037.47809028  .00000000  00000+0  00000-0 0  9996
2 17804  96.3000 288.0000 0000000   0.0000 144.0000 15.59189987    10
CTC1_L_00542025-02
1 17805U 25653ZW  26037.47809028  .00000000  00000+0  00000-0 0  9997
2 17805  96.3000 288.0000 0000000   0.0000 189.0000 15.59189987    10
CTC1_L_00542025-03
1 17806U 26107CK  26037.47809028  .00000000  00000+0  00000-0 0  9993
2 17806  96.3000 288.0000 0000000   0.0000 234.0000 15.59189987    12
CTC1_L_00542025-04
1 17807U 25802QI  26037.47809028  .00000000  00000+0  00000-0 0  9995
2 17807  96.3000 288.0000 0000000   0.0000 279.0000 15.59189987    12
CTC1_L_00542025-05
1 17808U 24799LV  26037.47809028  .00000000  00000+0  00000-0 0  9990
2 17808  96.3000 288.0000 0000000   0.0000 324.0000 15.59189987    14
CTC1_L_00542025-06
1 17809U 26257DE  26037.47809028  .00000000  00000+0  00000-0 0  9992
2 17809  96.3000 288.0000 0000000   0.0000   9.0000 15.59189987    15
CTC1_L_00542025-07
1 17810U 26776HF  26037.47809028  .00000000  00000+0  00000-0 0  9990
2 17810  96.3000 288.0000 0000000   0.0000  54.0000 15.59189987    17
CTC1_L_00542025-08
1 17811U 24603HN  26037.47809028  .00000000  00000+0  00000-0 0  9998
2 17811  96.3000 288.0000 0000000   0.0000  99.0000 15.59189987    17
CTC1_L_00542026-01
1 17812U 25457OT  26037.47809028  .00000000  00000+0  00000-0 0  9997
2 17812  96.3000 300.0000 0000000   0.0000 150.0000 15.59189987    11
CTC1_L_00542026-02
1 17813U 25661YA  26037.47809028  .00000000  00000+0  00000-0 0  9995
2 17813  96.3000 300.0000 0000000   0.0000 195.0000 15.59189987    11
CTC1_L_00542026-03
1 17814U 23416SD  26037.47809028  .00000000  00000+0  00000-0 0  9992
2 17814  96.3000 300.0000 0000000   0.0000 240.0000 15.59189987    13
CTC1_L_00542026-04
1 17815U 22126RZ  26037.47809028  .00000000  00000+0  00000-0 0  9990
2 17815  96.3000 300.0000 0000000   0.0000 285.0000 15.59189987    13
CTC1_L_00542026-05
1 17816U 22261BN  26037.47809028  .00000000  00000+0  00000-0 0  9991
2 17816  96.3000 300.0000 0000000   0.0000 330.0000 15.59189987    15
CTC1_L_00542026-06
1 17817U 24791PY  26037.47809028  .00000000  00000+0  00000-0 0  9992
2 17817  96.3000 300.0000 0000000   0.0000  15.0000 15.59189987    16
CTC1_L_00542026-07
1 17818U 25025XR  26037.47809028  .00000000  00000+0  00000-0 0  9994
2 17818  96.3000 300.0000 0000000   0.0000  60.0000 15.59189987    17
CTC1_L_00542026-08
1 17819U 25682OT  26037.47809028  .00000000  00000+0  00000-0 0  9994
2 17819  96.3000 300.0000 0000000   0.0000 105.0000 15.59189987    18
CTC1_L_00542027-01
1 17820U 25955IT  26037.47809028  .00000000  00000+0  00000-0 0  9999
2 17820  96.3000 312.0000 0000000   0.0000 156.0000 15.59189987    19
CTC1_L_00542027-02
1 17821U 26826RY  26037.47809028  .00000000  00000+0  00000-0 0  9998
2 17821  96.3000 312.0000 0000000   0.0000 201.0000 15.59189987    11
CTC1_L_00542027-03
1 17822U 23635MD  26037.47809028  .00000000  00000+0  00000-0 0  9994
2 17822  96.3000 312.0000 0000000   0.0000 246.0000 15.59189987    11
CTC1_L_00542027-04
1 17823U 26116QZ  26037.47809028  .00000000  00000+0  00000-0 0  9992
2 17823  96.3000 312.0000 0000000   0.0000 291.0000 15.59189987    12
CTC1_L_00542027-05
1 17824U 26314NM  26037.47809028  .00000000  00000+0  00000-0 0  9993
2 17824  96.3000 312.0000 0000000   0.0000 336.0000 15.59189987    13
CTC1_L_00542027-06
1 17825U 24291GC  26037.47809028  .00000000  00000+0  00000-0 0  9996
2 17825  96.3000 312.0000 0000000   0.0000  21.0000 15.59189987    15
CTC1_L_00542027-07
1 17826U 25713CI  26037.47809028  .00000000  00000+0  00000-0 0  9997
2 17826  96.3000 312.0000 0000000   0.0000  66.0000 15.59189987    15
CTC1_L_00542027-08
1 17827U 23591LG  26037.47809028  .00000000  00000+0  00000-0 0  9990
2 17827  96.3000 312.0000 0000000   0.0000 111.0000 15.59189987    17
CTC1_L_00542028-01
1 17828U 25897XF  26037.47809028  .00000000  00000+0  00000-0 0  9992
2 17828  96.3000 324.0000 0000000   0.0000 162.0000 15.59189987    17
CTC1_L_00542028-02
1 17829U 25310VS  26037.47809028  .00000000  00000+0  00000-0 0  9993
2 17829  96.3000 324.0000 0000000   0.0000 207.0000 15.59189987    18
CTC1_L_00542028-03
1 17830U 25900UT  26037.47809028  .00000000  00000+0  00000-0 0  9990
2 17830  96.3000 324.0000 0000000   0.0000 252.0000 15.59189987    10
CTC1_L_00542028-04
1 17831U 23449ND  26037.47809028  .00000000  00000+0  00000-0 0  9997
2 17831  96.3000 324.0000 0000000   0.0000 297.0000 15.59189987    10
CTC1_L_00542028-05
1 17832U 22775IF  26037.47809028  .00000000  00000+0  00000-0 0  9999
2 17832  96.3000 324.0000 0000000   0.0000 342.0000 15.59189987    12
CTC1_L_00542028-06
1 17833U 25707TJ  26037.47809028  .00000000  00000+0  00000-0 0  9998
2 17833  96.3000 324.0000 0000000   0.0000  27.0000 15.59189987    13
CTC1_L_00542028-07
1 17834U 26649IW  26037.47809028  .00000000  00000+0  00000-0 0  9995
2 17834  96.3000 324.0000 0000000   0.0000  72.0000 15.59189987    14
CTC1_L_00542028-08
1 17835U 24943US  26037.47809028  .00000000  00000+0  00000-0 0  9991
2 17835  96.3000 324.0000 0000000   0.0000 117.0000 15.59189987    15
CTC1_L_00542029-01
1 17836U 22278PN  26037.47809028  .00000000  00000+0  00000-0 0  9991
2 17836  96.3000 336.0000 0000000   0.0000 168.0000 15.59189987    15
CTC1_L_00542029-02
1 17837U 25397US  26037.47809028  .00000000  00000+0  00000-0 0  9997
2 17837  96.3000 336.0000 0000000   0.0000 213.0000 15.59189987    17
CTC1_L_00542029-03
1 17838U 23532EU  26037.47809028  .00000000  00000+0  00000-0 0  9997
2 17838  96.3000 336.0000 0000000   0.0000 258.0000 15.59189987    17
CTC1_L_00542029-04
1 17839U 23246A   26037.47809028  .00000000  00000+0  00000-0 0  9990
2 17839  96.3000 336.0000 0000000   0.0000 303.0000 15.59189987    19
CTC1_L_00542029-05
1 17840U 23367FM  26037.47809028  .00000000  00000+0  00000-0 0  9996
2 17840  96.3000 336.0000 0000000   0.0000 348.0000 15.59189987    10
CTC1_L_00542029-06
1 17841U 24995RJ  26037.47809028  .00000000  00000+0  00000-0 0  9995
2 17841  96.3000 336.0000 0000000   0.0000  33.0000 15.59189987    12
CTC1_L_00542029-07
1 17842U 26329UI  26037.47809028  .00000000  00000+0  00000-0 0  9999
2 17842  96.3000 336.0000 0000000   0.0000  78.0000 15.59189987    12
CTC1_L_00542029-08
1 17843U 22134ND  26037.47809028  .00000000  00000+0  00000-0 0  9990
2 17843  96.3000 336.0000 0000000   0.0000 123.0000 15.59189987    14
CTC1_L_00542030-01
1 17844U 23496FP  26037.47809028  .00000000  00000+0  00000-0 0  9993
2 17844  96.3000 348.0000 0000000   0.0000 174.0000 15.59189987    14
CTC1_L_00542030-02
1 17845U 25533VX  26037.47809028  .00000000  00000+0  00000-0 0  9998
2 17845  96.3000 348.0000 0000000   0.0000 219.0000 15.59189987    15
CTC1_L_00542030-03
1 17846U 24743XN  26037.47809028  .00000000  00000+0  00000-0 0  9991
2 17846  96.3000 348.0000 0000000   0.0000 264.0000 15.59189987    16
CTC1_L_00542030-04
1 17847U 25755UH  26037.47809028  .00000000  00000+0  00000-0 0  9996
2 17847  96.3000 348.0000 0000000   0.0000 309.0000 15.59189987    17
CTC1_L_00542030-05
1 17848U 24523XN  26037.47809028  .00000000  00000+0  00000-0 0  9999
2 17848  96.3000 348.0000 0000000   0.0000 354.0000 15.59189987    18
CTC1_L_00542030-06
1 17849U 23990IA  26037.47809028  .00000000  00000+0  00000-0 0  9997
2 17849  96.3000 348.0000 0000000   0.0000  39.0000 15.59189987    19
CTC1_L_00542030-07
1 17850U 24872BU  26037.47809028  .00000000  00000+0  00000-0 0  9999
2 17850  96.3000 348.0000 0000000   0.0000  84.0000 15.59189987    11
CTC1_L_00542030-08
1 17851U 23658YT  26037.47809028  .00000000  00000+0  00000-0 0  9991
2 17851  96.3000 348.0000 0000000   0.0000 129.0000 15.59189987    12
